start=new Date('2023-05-30T00:00:00.000Z').valueOf();
sats=[{"REV_AT_EPOCH":"11337","APOAPSIS":"547.981","MEAN_MOTION_DDOT":"0.0000000000000","TLE_LINE2":"2 48485  53.0541  77.6956 0001085  88.0850 272.0264 15.06394828113376","MEAN_MOTION_DOT":"0.00004658","OBJECT_NAME":"STARLINK-2500","OBJECT_TYPE":"PAYLOAD","INCLINATION":"53.0541","FILE":"3920354","EPHEMERIS_TYPE":"0","LAUNCH_DATE":"2021-05-09","ECCENTRICITY":"0.00010850","BSTAR":"0.00033142000000","MEAN_MOTION":"15.06394828","GP_ID":"232778966","EPOCH":"2023-05-29T18:51:26.484480","SEMIMAJOR_AXIS":"6925.364","ARG_OF_PERICENTER":"88.0850","COUNTRY_CODE":"US","TLE_LINE1":"1 48485U 21040BK  23149.78572320  .00004658  00000-0  33142-3 0  9998","NORAD_CAT_ID":"48485","ELEMENT_SET_NO":"999","PERIAPSIS":"546.478","MEAN_ANOMALY":"272.0264","DECAY_DATE":null,"OBJECT_ID":"2021-040BK","RA_OF_ASC_NODE":"77.6956","CLASSIFICATION_TYPE":"U","CENTER_NAME":"EARTH","PERIOD":"95.592","REF_FRAME":"TEME","TIME_SYSTEM":"UTC","MEAN_ELEMENT_THEORY":"SGP4","SITE":"AFETR","RCS_SIZE":"LARGE"},{"BSTAR":"0.00011280000000","ECCENTRICITY":"0.00013440","GP_ID":"232779205","MEAN_MOTION":"15.06390520","EPOCH":"2023-05-29T18:55:23.461536","ARG_OF_PERICENTER":"89.5024","SEMIMAJOR_AXIS":"6925.378","REV_AT_EPOCH":"11337","APOAPSIS":"548.173","MEAN_MOTION_DDOT":"0.0000000000000","MEAN_MOTION_DOT":"0.00001399","TLE_LINE2":"2 48486  53.0535  77.6736 0001344  89.5024 270.6119 15.06390520113371","OBJECT_NAME":"STARLINK-2496","OBJECT_TYPE":"PAYLOAD","INCLINATION":"53.0535","FILE":"3920354","LAUNCH_DATE":"2021-05-09","EPHEMERIS_TYPE":"0","OBJECT_ID":"2021-040BL","DECAY_DATE":null,"RA_OF_ASC_NODE":"77.6736","CLASSIFICATION_TYPE":"U","CENTER_NAME":"EARTH","REF_FRAME":"TEME","PERIOD":"95.593","SITE":"AFETR","TIME_SYSTEM":"UTC","MEAN_ELEMENT_THEORY":"SGP4","RCS_SIZE":"LARGE","TLE_LINE1":"1 48486U 21040BL  23149.78846599  .00001399  00000-0  11280-3 0  9999","COUNTRY_CODE":"US","NORAD_CAT_ID":"48486","ELEMENT_SET_NO":"999","PERIAPSIS":"546.312","MEAN_ANOMALY":"270.6119"},{"LAUNCH_DATE":"2021-05-09","EPHEMERIS_TYPE":"0","FILE":"3920354","OBJECT_TYPE":"PAYLOAD","INCLINATION":"53.0538","OBJECT_NAME":"STARLINK-2494","MEAN_MOTION_DOT":"0.00001411","TLE_LINE2":"2 48487  53.0538  77.6698 0000983  86.7084 273.4018 15.06392835113386","MEAN_MOTION_DDOT":"0.0000000000000","APOAPSIS":"547.916","REV_AT_EPOCH":"11338","SEMIMAJOR_AXIS":"6925.371","ARG_OF_PERICENTER":"86.7084","EPOCH":"2023-05-29T19:02:03.348384","GP_ID":"232778464","MEAN_MOTION":"15.06392835","BSTAR":"0.00011361000000","ECCENTRICITY":"0.00009830","MEAN_ANOMALY":"273.4018","PERIAPSIS":"546.555","ELEMENT_SET_NO":"999","NORAD_CAT_ID":"48487","COUNTRY_CODE":"US","TLE_LINE1":"1 48487U 21040BM  23149.79309431  .00001411  00000-0  11361-3 0  9995","RCS_SIZE":"LARGE","SITE":"AFETR","MEAN_ELEMENT_THEORY":"SGP4","TIME_SYSTEM":"UTC","REF_FRAME":"TEME","PERIOD":"95.593","CLASSIFICATION_TYPE":"U","CENTER_NAME":"EARTH","RA_OF_ASC_NODE":"77.6698","OBJECT_ID":"2021-040BM","DECAY_DATE":null},{"TLE_LINE1":"1 48553U 21041A   23149.90275903  .00006309  00000-0  44205-3 0  9993","COUNTRY_CODE":"US","ELEMENT_SET_NO":"999","NORAD_CAT_ID":"48553","MEAN_ANOMALY":"263.5067","PERIAPSIS":"546.497","DECAY_DATE":null,"OBJECT_ID":"2021-041A","CLASSIFICATION_TYPE":"U","CENTER_NAME":"EARTH","RA_OF_ASC_NODE":"7.1774","MEAN_ELEMENT_THEORY":"SGP4","TIME_SYSTEM":"UTC","SITE":"AFETR","PERIOD":"95.592","REF_FRAME":"TEME","RCS_SIZE":"LARGE","TLE_LINE2":"2 48553  53.0543   7.1774 0001044  96.6041 263.5067 15.06397954112257","MEAN_MOTION_DOT":"0.00006309","APOAPSIS":"547.943","REV_AT_EPOCH":"11225","MEAN_MOTION_DDOT":"0.0000000000000","OBJECT_NAME":"STARLINK-2063","OBJECT_TYPE":"PAYLOAD","INCLINATION":"53.0543","EPHEMERIS_TYPE":"0","LAUNCH_DATE":"2021-05-15","FILE":"3920354","ECCENTRICITY":"0.00010440","BSTAR":"0.00044205000000","MEAN_MOTION":"15.06397954","GP_ID":"232779710","ARG_OF_PERICENTER":"96.6041","SEMIMAJOR_AXIS":"6925.355","EPOCH":"2023-05-29T21:39:58.380192"},{"CENTER_NAME":"EARTH","CLASSIFICATION_TYPE":"U","RA_OF_ASC_NODE":"7.4378","OBJECT_ID":"2021-041B","DECAY_DATE":null,"RCS_SIZE":"LARGE","SITE":"AFETR","TIME_SYSTEM":"UTC","MEAN_ELEMENT_THEORY":"SGP4","REF_FRAME":"TEME","PERIOD":"95.593","COUNTRY_CODE":"US","TLE_LINE1":"1 48554U 21041B   23149.84378269  .00001921  00000-0  14787-3 0  9993","MEAN_ANOMALY":"270.5958","PERIAPSIS":"546.663","ELEMENT_SET_NO":"999","NORAD_CAT_ID":"48554","ECCENTRICITY":"0.00008310","BSTAR":"0.00014787000000","SEMIMAJOR_AXIS":"6925.374","ARG_OF_PERICENTER":"89.5126","EPOCH":"2023-05-29T20:15:02.824416","GP_ID":"232777970","MEAN_MOTION":"15.06391706","OBJECT_NAME":"STARLINK-2139","MEAN_MOTION_DOT":"0.00001921","TLE_LINE2":"2 48554  53.0552   7.4378 0000831  89.5126 270.5958 15.06391706112244","MEAN_MOTION_DDOT":"0.0000000000000","APOAPSIS":"547.814","REV_AT_EPOCH":"11224","LAUNCH_DATE":"2021-05-15","EPHEMERIS_TYPE":"0","FILE":"3920354","OBJECT_TYPE":"PAYLOAD","INCLINATION":"53.0552"},{"CENTER_NAME":"EARTH","CLASSIFICATION_TYPE":"U","RA_OF_ASC_NODE":"17.3092","DECAY_DATE":null,"OBJECT_ID":"2021-041C","RCS_SIZE":"LARGE","TIME_SYSTEM":"UTC","MEAN_ELEMENT_THEORY":"SGP4","SITE":"AFETR","PERIOD":"95.593","REF_FRAME":"TEME","TLE_LINE1":"1 48555U 21041C   23149.87234935  .00002883  00000-0  21242-3 0  9990","COUNTRY_CODE":"US","MEAN_ANOMALY":"256.5864","PERIAPSIS":"546.675","ELEMENT_SET_NO":"999","NORAD_CAT_ID":"48555","ECCENTRICITY":"0.00008170","BSTAR":"0.00021242000000","ARG_OF_PERICENTER":"103.5216","SEMIMAJOR_AXIS":"6925.376","EPOCH":"2023-05-29T20:56:10.983840","MEAN_MOTION":"15.06391147","GP_ID":"232778720","OBJECT_NAME":"STARLINK-2145","TLE_LINE2":"2 48555  53.0553  17.3092 0000817 103.5216 256.5864 15.06391147112104","MEAN_MOTION_DOT":"0.00002883","REV_AT_EPOCH":"11210","APOAPSIS":"547.806","MEAN_MOTION_DDOT":"0.0000000000000","EPHEMERIS_TYPE":"0","LAUNCH_DATE":"2021-05-15","FILE":"3920354","INCLINATION":"53.0553","OBJECT_TYPE":"PAYLOAD"},{"SITE":"AFETR","MEAN_ELEMENT_THEORY":"SGP4","TIME_SYSTEM":"UTC","REF_FRAME":"TEME","PERIOD":"95.593","RCS_SIZE":"LARGE","OBJECT_ID":"2021-041D","DECAY_DATE":null,"CLASSIFICATION_TYPE":"U","CENTER_NAME":"EARTH","RA_OF_ASC_NODE":"17.0605","ELEMENT_SET_NO":"999","NORAD_CAT_ID":"48556","MEAN_ANOMALY":"270.4628","PERIAPSIS":"546.372","COUNTRY_CODE":"US","TLE_LINE1":"1 48556U 21041D   23149.92763776  .00004315  00000-0  30847-3 0  9990","GP_ID":"232778972","MEAN_MOTION":"15.06392679","ARG_OF_PERICENTER":"89.6504","SEMIMAJOR_AXIS":"6925.371","EPOCH":"2023-05-29T22:15:47.902464","ECCENTRICITY":"0.00012480","BSTAR":"0.00030847000000","INCLINATION":"53.0548","OBJECT_TYPE":"PAYLOAD","LAUNCH_DATE":"2021-05-15","EPHEMERIS_TYPE":"0","FILE":"3920354","MEAN_MOTION_DOT":"0.00004315","TLE_LINE2":"2 48556  53.0548  17.0605 0001248  89.6504 270.4628 15.06392679112114","REV_AT_EPOCH":"11211","APOAPSIS":"548.100","MEAN_MOTION_DDOT":"0.0000000000000","OBJECT_NAME":"STARLINK-2151"},{"MEAN_ANOMALY":"262.4577","PERIAPSIS":"546.589","ELEMENT_SET_NO":"999","NORAD_CAT_ID":"48557","COUNTRY_CODE":"US","TLE_LINE1":"1 48557U 21041E   23149.86589815  .00003973  00000-0  28552-3 0  9993","RCS_SIZE":"LARGE","TIME_SYSTEM":"UTC","MEAN_ELEMENT_THEORY":"SGP4","SITE":"AFETR","PERIOD":"95.593","REF_FRAME":"TEME","CLASSIFICATION_TYPE":"U","CENTER_NAME":"EARTH","RA_OF_ASC_NODE":"7.3395","DECAY_DATE":null,"OBJECT_ID":"2021-041E","EPHEMERIS_TYPE":"0","LAUNCH_DATE":"2021-05-15","FILE":"3920354","INCLINATION":"53.0552","OBJECT_TYPE":"PAYLOAD","OBJECT_NAME":"STARLINK-2155","TLE_LINE2":"2 48557  53.0552   7.3395 0000955  97.6520 262.4577 15.06388123112246","MEAN_MOTION_DOT":"0.00003973","APOAPSIS":"547.911","REV_AT_EPOCH":"11224","MEAN_MOTION_DDOT":"0.0000000000000","SEMIMAJOR_AXIS":"6925.385","ARG_OF_PERICENTER":"97.6520","EPOCH":"2023-05-29T20:46:53.600160","MEAN_MOTION":"15.06388123","GP_ID":"232779211","BSTAR":"0.00028552000000","ECCENTRICITY":"0.00009550"},{"ELEMENT_SET_NO":"999","NORAD_CAT_ID":"48558","MEAN_ANOMALY":"270.4695","PERIAPSIS":"546.597","TLE_LINE1":"1 48558U 21041F   23149.86221432  .00005597  00000-0  39439-3 0  9992","COUNTRY_CODE":"US","SITE":"AFETR","MEAN_ELEMENT_THEORY":"SGP4","TIME_SYSTEM":"UTC","REF_FRAME":"TEME","PERIOD":"95.593","RCS_SIZE":"LARGE","OBJECT_ID":"2021-041F","DECAY_DATE":null,"CLASSIFICATION_TYPE":"U","CENTER_NAME":"EARTH","RA_OF_ASC_NODE":"7.3541","OBJECT_TYPE":"PAYLOAD","INCLINATION":"53.0545","LAUNCH_DATE":"2021-05-15","EPHEMERIS_TYPE":"0","FILE":"3920354","MEAN_MOTION_DOT":"0.00005597","TLE_LINE2":"2 48558  53.0545   7.3541 0000918  89.6399 270.4695 15.06393849111381","APOAPSIS":"547.868","REV_AT_EPOCH":"11138","MEAN_MOTION_DDOT":"0.0000000000000","OBJECT_NAME":"STARLINK-2166","GP_ID":"232778470","MEAN_MOTION":"15.06393849","SEMIMAJOR_AXIS":"6925.367","ARG_OF_PERICENTER":"89.6399","EPOCH":"2023-05-29T20:41:35.317248","BSTAR":"0.00039439000000","ECCENTRICITY":"0.00009180"},{"TLE_LINE1":"1 48559U 21041G   23149.89813120  .00000885  00000-0  78325-4 0  9990","COUNTRY_CODE":"US","ELEMENT_SET_NO":"999","NORAD_CAT_ID":"48559","MEAN_ANOMALY":"265.3210","PERIAPSIS":"546.272","DECAY_DATE":null,"OBJECT_ID":"2021-041G","CLASSIFICATION_TYPE":"U","CENTER_NAME":"EARTH","RA_OF_ASC_NODE":"7.1927","MEAN_ELEMENT_THEORY":"SGP4","TIME_SYSTEM":"UTC","SITE":"AFETR","PERIOD":"95.592","REF_FRAME":"TEME","RCS_SIZE":"LARGE","TLE_LINE2":"2 48559  53.0542   7.1927 0001385  94.7937 265.3210 15.06394338112245","MEAN_MOTION_DOT":"0.00000885","APOAPSIS":"548.190","REV_AT_EPOCH":"11224","MEAN_MOTION_DDOT":"0.0000000000000","OBJECT_NAME":"STARLINK-2167","OBJECT_TYPE":"PAYLOAD","INCLINATION":"53.0542","EPHEMERIS_TYPE":"0","LAUNCH_DATE":"2021-05-15","FILE":"3920354","BSTAR":"0.00007832500000","ECCENTRICITY":"0.00013850","MEAN_MOTION":"15.06394338","GP_ID":"232778221","SEMIMAJOR_AXIS":"6925.366","ARG_OF_PERICENTER":"94.7937","EPOCH":"2023-05-29T21:33:18.535680"}];
